NORAD_CAT_ID,OBJECT_NAME,OBJECT_TYPE,EPOCH,MEAN_MOTION,ECCENTRICITY,INCLINATION,RA_OF_ASC_NODE,ARG_OF_PERICENTER,MEAN_ANOMALY,BSTAR,MEAN_MOTION_DOT,MEAN_MOTION_DDOT,TLE_LINE0,TLE_LINE1,TLE_LINE2,SEMIMAJOR_AXIS,PERIOD,APOGEE,PERIGEE,DECAYED
55406.0,STARLINK-5630,PAYLOAD,2023-05-20 09:11:07,15.69930504,0.0002929,69.9989,144.0873,260.9196,99.1668,1.172e-05,1.197e-05,0.0,0 STARLINK-5630,1 55406U 23014R   23140.38272753  .00001197  00000-0  11720-4 0  9990,2 55406  69.9989 144.0873 0002929 260.9196  99.1668 15.69930504 17261,6737.233,91.724,361.071,357.124,0.0
55406.0,STARLINK-5630,PAYLOAD,2023-05-21 09:39:12,15.6989775,0.0003241,69.9988,141.2223,259.8953,100.1877,-2.5487e-05,-3.273e-05,0.0,0 STARLINK-5630,1 55406U 23014R   23141.40222259 -.00003273  00000-0 -25487-4 0  9994,2 55406  69.9988 141.2223 0003241 259.8953 100.1877 15.69897750 17422,6737.327,91.726,361.375,357.008,0.0
55406.0,STARLINK-5630,PAYLOAD,2023-05-22 00:56:41,15.69928496,0.0003388,69.9981,139.4325,266.9665,93.1143,1.7833e-05,1.932e-05,0.0,0 STARLINK-5630,1 55406U 23014R   23142.03936438  .00001932  00000-0  17833-4 0  9999,2 55406  69.9981 139.4325 0003388 266.9665  93.1143 15.69928496 17528,6737.239,91.724,361.386,356.821,0.0
55406.0,STARLINK-5630,PAYLOAD,2023-05-22 02:28:25,15.69944117,0.0002688,69.9991,139.2502,245.7387,114.3528,2.4046e-05,2.682e-05,0.0,0 STARLINK-5630,1 55406U 23014R   23142.10307045  .00002682  00000-0  24046-4 0  9990,2 55406  69.9991 139.2502 0002688 245.7387 114.3528 15.69944117 17534,6737.194,91.723,360.87,357.248,0.0
55406.0,STARLINK-5630,PAYLOAD,2023-05-22 08:35:25,15.69939231,0.0003137,70.0004,138.537,241.4149,118.6732,1.9066e-05,2.082e-05,0.0,0 STARLINK-5630,1 55406U 23014R   23142.35793886  .00002082  00000-0  19066-4 0  9999,2 55406  70.0004 138.5370 0003137 241.4149 118.6732 15.69939231 18510,6737.208,91.723,361.186,356.959,0.0
55406.0,STARLINK-5630,PAYLOAD,2023-05-23 01:24:43,15.6990642,0.0003068,69.9989,136.5629,263.2075,96.8771,3.3048e-05,3.76e-05,0.0,0 STARLINK-5630,1 55406U 23014R   23143.05883980  .00003760  00000-0  33048-4 0  9992,2 55406  69.9989 136.5629 0003068 263.2075  96.8771 15.69906420 17688,6737.302,91.725,361.234,357.1,0.0
55406.0,STARLINK-5630,PAYLOAD,2023-05-23 09:03:28,15.69917223,0.0003677,69.9964,135.6659,265.7449,94.3326,4.6311e-05,5.358e-05,0.0,0 STARLINK-5630,1 55406U 23014R   23143.37741692  .00005358  00000-0  46311-4 0  9992,2 55406  69.9964 135.6659 0003677 265.7449  94.3326 15.69917223 17730,6737.271,91.725,361.613,356.659,0.0
55406.0,STARLINK-5630,PAYLOAD,2023-05-23 16:42:15,15.69913463,0.0003351,69.9972,134.7724,263.6516,96.4298,2.0018e-05,2.194e-05,0.0,0 STARLINK-5630,1 55406U 23014R   23143.69601011  .00002194  00000-0  20018-4 0  9998,2 55406  69.9972 134.7724 0003351 263.6516  96.4298 15.69913463 17781,6737.282,91.725,361.404,356.889,0.0
55406.0,STARLINK-5630,PAYLOAD,2023-05-23 22:49:15,15.69931332,0.0003364,69.9978,134.0554,266.8358,93.2453,-1.6289e-05,-2.172e-05,0.0,0 STARLINK-5630,1 55406U 23014R   23143.95087336 -.00002172  00000-0 -16289-4 0  9998,2 55406  69.9978 134.0554 0003364 266.8358  93.2453 15.69931332 18766,6737.23,91.724,361.362,356.829,0.0
55406.0,STARLINK-5630,PAYLOAD,2023-05-24 00:21:00,15.69930991,0.0003355,69.9978,133.8762,266.6051,93.4761,-1.6376e-05,-2.182e-05,0.0,0 STARLINK-5630,1 55406U 23014R   23144.01458996 -.00002182  00000-0 -16376-4 0  9998,2 55406  69.9978 133.8762 0003355 266.6051  93.4761 15.69930991 17833,6737.231,91.724,361.357,356.836,0.0
55406.0,STARLINK-5630,PAYLOAD,2023-05-24 09:31:30,15.6993759,0.0003236,69.998,132.8014,265.821,94.2616,-6.3823e-06,-9.8e-06,0.0,0 STARLINK-5630,1 55406U 23014R   23144.39688242 -.00000980  00000-0 -63823-5 0  9992,2 55406  69.9980 132.8014 0003236 265.8210  94.2616 15.69937590 17897,6737.213,91.723,361.258,356.897,0.0
55406.0,STARLINK-5630,PAYLOAD,2023-05-25 22:13:34,15.6991745,0.0003167,69.9975,128.5021,266.2332,93.8502,1.1904e-05,1.218e-05,0.0,0 STARLINK-5630,1 55406U 23014R   23145.92609398  .00001218  00000-0  11904-4 0  9992,2 55406  69.9975 128.5021 0003167 266.2332  93.8502 15.69917450 19078,6737.27,91.725,361.269,357.001,0.0
55406.0,STARLINK-5630,PAYLOAD,2023-05-26 01:17:04,15.69920951,0.00029,69.9979,128.1435,266.753,93.3333,6.7766e-06,6.02e-06,0.0,0 STARLINK-5630,1 55406U 23014R   23146.05352681  .00000602  00000-0  67766-5 0  9991,2 55406  69.9979 128.1435 0002900 266.7530  93.3333 15.69920951 18151,6737.26,91.724,361.079,357.171,0.0
55406.0,STARLINK-5630,PAYLOAD,2023-05-26 08:55:50,15.69913637,0.0002956,69.9981,127.2474,269.3727,90.713,-2.0749e-06,-4.62e-06,0.0,0 STARLINK-5630,1 55406U 23014R   23146.37211663 -.00000462  00000-0 -20749-5 0  9996,2 55406  69.9981 127.2474 0002956 269.3727  90.7130 15.69913637 19144,6737.281,91.725,361.138,357.155,0.0
55406.0,STARLINK-5630,PAYLOAD,2023-05-27 01:45:06,15.69926006,0.0003532,69.9968,125.2765,263.7289,96.3504,5.4009e-06,4.37e-06,0.0,0 STARLINK-5630,1 55406U 23014R   23147.07299048  .00000437  00000-0  54009-5 0  9993,2 55406  69.9968 125.2765 0003532 263.7289  96.3504 15.69926006 18311,6737.246,91.724,361.49,356.731,0.0
55406.0,STARLINK-5630,PAYLOAD,2023-05-27 21:37:53,15.69918863,0.0003517,69.9972,122.9488,266.6498,93.4296,1.3286e-05,1.385e-05,0.0,0 STARLINK-5630,1 55406U 23014R   23147.90131149  .00001385  00000-0  13286-4 0  9996,2 55406  69.9972 122.9488 0003517 266.6498  93.4296 15.69918863 19385,6737.266,91.724,361.501,356.762,0.0
55406.0,STARLINK-5630,PAYLOAD,2023-05-28 00:41:23,15.69922094,0.0003492,69.9981,122.5903,266.2528,93.8269,8.375e-06,7.94e-06,0.0,0 STARLINK-5630,1 55406U 23014R   23148.02874433  .00000794  00000-0  83750-5 0  9997,2 55406  69.9981 122.5903 0003492 266.2528  93.8269 15.69922094 18468,6737.257,91.724,361.475,356.769,0.0
55406.0,STARLINK-5630,PAYLOAD,2023-05-28 15:58:54,15.69922131,0.0003229,69.9965,120.7974,263.6372,96.4456,1.0945e-05,1.103e-05,0.0,0 STARLINK-5630,1 55406U 23014R   23148.66591086  .00001103  00000-0  10945-4 0  9997,2 55406  69.9965 120.7974 0003229 263.6372  96.4456 15.69922131 19509,6737.257,91.724,361.297,356.946,0.0
55406.0,STARLINK-5630,PAYLOAD,2023-05-29 01:09:25,15.69934428,0.000294,69.9984,119.7247,263.1186,96.9675,-4.351e-06,-7.36e-06,0.0,0 STARLINK-5630,1 55406U 23014R   23149.04820636 -.00000736  00000-0 -43510-5 0  9994,2 55406  69.9984 119.7247 0002940 263.1186  96.9675 15.69934428 18620,6737.222,91.724,361.067,357.106,0.0
55406.0,STARLINK-5630,PAYLOAD,2023-05-29 07:16:26,15.69912395,0.0003206,69.9978,119.0067,262.0812,98.002,-3.025e-06,-5.76e-06,0.0,0 STARLINK-5630,1 55406U 23014R   23149.30308606 -.00000576  00000-0 -30250-5 0  9990,2 55406  69.9978 119.0067 0003206 262.0812  98.0020 15.69912395 18666,6737.285,91.725,361.31,356.99,0.0
55406.0,STARLINK-5630,PAYLOAD,2023-05-29 21:02:12,15.69924046,0.0002911,69.9989,117.3955,260.9083,99.1783,1.0484e-05,1.048e-05,0.0,0 STARLINK-5630,1 55406U 23014R   23149.87652828  .00001048  00000-0  10484-4 0  9999,2 55406  69.9989 117.3955 0002911 260.9083  99.1783 15.69924046 19692,6737.251,91.724,361.078,357.155,0.0
55406.0,STARLINK-5630,PAYLOAD,2023-05-30 01:37:26,15.69936871,0.0003163,69.9988,116.8582,256.8211,103.2632,2.4494e-05,2.735e-05,0.0,0 STARLINK-5630,1 55406U 23014R   23150.06766733  .00002735  00000-0  24494-4 0  9993,2 55406  69.9988 116.8582 0003163 256.8211 103.2632 15.69936871 18786,6737.215,91.723,361.211,356.949,0.0
55406.0,STARLINK-5630,PAYLOAD,2023-05-30 07:44:28,15.69914784,0.0002691,69.9981,116.1397,261.5956,98.4934,-5.0251e-06,-8.16e-06,0.0,0 STARLINK-5630,1 55406U 23014R   23150.32255320 -.00000816  00000-0 -50251-5 0  9998,2 55406  69.9981 116.1397 0002691 261.5956  98.4934 15.69914784 18824,6737.278,91.725,360.956,357.33,0.0
55406.0,STARLINK-5630,PAYLOAD,2023-05-30 15:23:13,15.69922897,0.0002889,69.9971,115.2448,275.6996,84.387,1.3675e-05,1.432e-05,0.0,0 STARLINK-5630,1 55406U 23014R   23150.64112924  .00001432  00000-0  13675-4 0  9996,2 55406  69.9971 115.2448 0002889 275.6996  84.3870 15.69922897 18871,6737.255,91.724,361.066,357.173,0.0
55406.0,STARLINK-5630,PAYLOAD,2023-05-31 06:40:44,15.6991196,0.0003165,69.9979,113.454,258.4217,101.6623,4.2882e-05,4.944e-05,0.0,0 STARLINK-5630,1 55406U 23014R   23151.27829779  .00004944  00000-0  42882-4 0  9992,2 55406  69.9979 113.4540 0003165 258.4217 101.6623 15.69911960 18974,6737.286,91.725,361.283,357.019,0.0
55406.0,STARLINK-5630,PAYLOAD,2023-05-31 21:58:15,15.69937887,0.0003324,69.9991,111.6601,257.9257,102.1566,-1.6696e-05,-2.221e-05,0.0,0 STARLINK-5630,1 55406U 23014R   23151.91545993 -.00002221  00000-0 -16696-4 0  9998,2 55406  69.9991 111.6601 0003324 257.9257 102.1566 15.69937887 20017,6737.212,91.723,361.316,356.837,0.0
55406.0,STARLINK-5630,PAYLOAD,2023-06-01 07:08:46,15.69930524,0.0003443,69.9978,110.5883,261.6717,98.4088,-4.3915e-06,-7.41e-06,0.0,0 STARLINK-5630,1 55406U 23014R   23152.29776109 -.00000741  00000-0 -43915-5 0  9995,2 55406  69.9978 110.5883 0003443 261.6717  98.4088 15.69930524 20070,6737.233,91.724,361.417,356.778,0.0
55406.0,STARLINK-5630,PAYLOAD,2023-06-02 06:05:03,15.69922591,0.0003414,69.9977,107.9015,260.5069,99.5741,4.3745e-06,3.13e-06,0.0,0 STARLINK-5630,1 55406U 23014R   23153.25351635  .00000313  00000-0  43745-5 0  9999,2 55406  69.9977 107.9015 0003414 260.5069  99.5741 15.69922591 19286,6737.255,91.724,361.421,356.82,0.0
55406.0,STARLINK-5630,PAYLOAD,2023-06-03 03:29:36,15.69911382,0.0003375,69.9979,105.3913,257.938,102.1437,8.8983e-06,8.57e-06,0.0,0 STARLINK-5630,1 55406U 23014R   23154.14555638  .00000857  00000-0  88983-5 0  9993,2 55406  69.9979 105.3913 0003375 257.9380 102.1437 15.69911382 19424,6737.288,91.725,361.426,356.879,0.0
55406.0,STARLINK-5630,PAYLOAD,2023-06-03 06:33:06,15.69910023,0.0003276,69.9981,105.0336,260.599,99.4835,8.6875e-06,8.31e-06,0.0,0 STARLINK-5630,1 55406U 23014R   23154.27299194  .00000831  00000-0  86875-5 0  9999,2 55406  69.9981 105.0336 0003276 260.5990  99.4835 15.69910023 20388,6737.291,91.725,361.364,356.949,0.0
